[{"CCSDS_OMM_VERS":"3.0","COMMENT":"GENERATED VIA SPACE-TRACK.ORG API","CREATION_DATE":"2026-05-16T17:43:08","ORIGINATOR":"18 SPCS","OBJECT_NAME":"THOR ABLESTAR DEB","OBJECT_ID":"1961-015BS","CENTER_NAME":"EARTH","REF_FRAME":"TEME","TIME_SYSTEM":"UTC","MEAN_ELEMENT_THEORY":"SGP4","EPOCH":"2026-05-16T08:15:42.248736","MEAN_MOTION":"14.04089009","ECCENTRICITY":"0.00667853","INCLINATION":"66.8761","RA_OF_ASC_NODE":"240.4344","ARG_OF_PERICENTER":"156.9400","MEAN_ANOMALY":"203.4709","EPHEMERIS_TYPE":"0","CLASSIFICATION_TYPE":"U","NORAD_CAT_ID":"234","ELEMENT_SET_NO":"999","REV_AT_EPOCH":"30696","BSTAR":"0.00010669544000","MEAN_MOTION_DOT":"0.00000094","MEAN_MOTION_DDOT":"0.0000000000000","SEMIMAJOR_AXIS":"7257.807","PERIOD":"102.558","APOAPSIS":"928.143","PERIAPSIS":"831.201","OBJECT_TYPE":"DEBRIS","RCS_SIZE":"SMALL","COUNTRY_CODE":"US","LAUNCH_DATE":"1961-06-29","SITE":"AFETR","DECAY_DATE":null,"FILE":"5196581","GP_ID":"323457160","TLE_LINE0":"0 THOR ABLESTAR DEB","TLE_LINE1":"1 00234U 61015BS  26136.34423899  .00000094  00000-0  10670-3 0  9992","TLE_LINE2":"2 00234  66.8761 240.4344 0066785 156.9400 203.4709 14.04089009306967"},{"CCSDS_OMM_VERS":"3.0","COMMENT":"GENERATED VIA SPACE-TRACK.ORG API","CREATION_DATE":"2026-05-16T17:43:08","ORIGINATOR":"18 SPCS","OBJECT_NAME":"THOR ABLESTAR DEB","OBJECT_ID":"1961-015BT","CENTER_NAME":"EARTH","REF_FRAME":"TEME","TIME_SYSTEM":"UTC","MEAN_ELEMENT_THEORY":"SGP4","EPOCH":"2026-05-16T14:33:37.196928","MEAN_MOTION":"14.11337111","ECCENTRICITY":"0.01613613","INCLINATION":"66.9553","RA_OF_ASC_NODE":"350.1334","ARG_OF_PERICENTER":"355.8979","MEAN_ANOMALY":"4.0776","EPHEMERIS_TYPE":"0","CLASSIFICATION_TYPE":"U","NORAD_CAT_ID":"235","ELEMENT_SET_NO":"999","REV_AT_EPOCH":"31687","BSTAR":"0.00013808639000","MEAN_MOTION_DOT":"0.00000203","MEAN_MOTION_DDOT":"0.0000000000000","SEMIMAJOR_AXIS":"7232.937","PERIOD":"102.031","APOAPSIS":"971.513","PERIAPSIS":"738.090","OBJECT_TYPE":"DEBRIS","RCS_SIZE":"SMALL","COUNTRY_CODE":"US","LAUNCH_DATE":"1961-06-29","SITE":"AFETR","DECAY_DATE":null,"FILE":"5196581","GP_ID":"323457661","TLE_LINE0":"0 THOR ABLESTAR DEB","TLE_LINE1":"1 00235U 61015BT  26136.60668052  .00000203  00000-0  13809-3 0  9993","TLE_LINE2":"2 00235  66.9553 350.1334 0161361 355.8979   4.0776 14.11337111316871"},{"CCSDS_OMM_VERS":"3.0","COMMENT":"GENERATED VIA SPACE-TRACK.ORG API","CREATION_DATE":"2026-05-15T10:47:17","ORIGINATOR":"18 SPCS","OBJECT_NAME":"THOR ABLESTAR DEB","OBJECT_ID":"1961-015BY","CENTER_NAME":"EARTH","REF_FRAME":"TEME","TIME_SYSTEM":"UTC","MEAN_ELEMENT_THEORY":"SGP4","EPOCH":"2026-05-15T06:46:32.724480","MEAN_MOTION":"14.01890816","ECCENTRICITY":"0.00183491","INCLINATION":"66.4619","RA_OF_ASC_NODE":"86.7993","ARG_OF_PERICENTER":"118.2014","MEAN_ANOMALY":"242.0924","EPHEMERIS_TYPE":"0","CLASSIFICATION_TYPE":"U","NORAD_CAT_ID":"243","ELEMENT_SET_NO":"999","REV_AT_EPOCH":"27868","BSTAR":"0.00036496465000","MEAN_MOTION_DOT":"0.00000475","MEAN_MOTION_DDOT":"0.0000000000000","SEMIMAJOR_AXIS":"7265.392","PERIOD":"102.718","APOAPSIS":"900.588","PERIAPSIS":"873.926","OBJECT_TYPE":"DEBRIS","RCS_SIZE":"SMALL","COUNTRY_CODE":"US","LAUNCH_DATE":"1961-06-29","SITE":"AFETR","DECAY_DATE":null,"FILE":"5196510","GP_ID":"323389733","TLE_LINE0":"0 THOR ABLESTAR DEB","TLE_LINE1":"1 00243U 61015BY  26135.28232320  .00000475  00000-0  36496-3 0  9998","TLE_LINE2":"2 00243  66.4619  86.7993 0018349 118.2014 242.0924 14.01890816278689"},{"CCSDS_OMM_VERS":"3.0","COMMENT":"GENERATED VIA SPACE-TRACK.ORG API","CREATION_DATE":"2026-05-16T19:46:19","ORIGINATOR":"18 SPCS","OBJECT_NAME":"THOR ABLESTAR DEB","OBJECT_ID":"1961-015BZ","CENTER_NAME":"EARTH","REF_FRAME":"TEME","TIME_SYSTEM":"UTC","MEAN_ELEMENT_THEORY":"SGP4","EPOCH":"2026-05-16T11:50:27.887712","MEAN_MOTION":"13.95731843","ECCENTRICITY":"0.00626280","INCLINATION":"66.8409","RA_OF_ASC_NODE":"307.3418","ARG_OF_PERICENTER":"107.9411","MEAN_ANOMALY":"252.8512","EPHEMERIS_TYPE":"0","CLASSIFICATION_TYPE":"U","NORAD_CAT_ID":"244","ELEMENT_SET_NO":"999","REV_AT_EPOCH":"29471","BSTAR":"0.00008939300000","MEAN_MOTION_DOT":"0.00000047","MEAN_MOTION_DDOT":"0.0000000000000","SEMIMAJOR_AXIS":"7286.750","PERIOD":"103.172","APOAPSIS":"954.250","PERIAPSIS":"862.979","OBJECT_TYPE":"DEBRIS","RCS_SIZE":"SMALL","COUNTRY_CODE":"US","LAUNCH_DATE":"1961-06-29","SITE":"AFETR","DECAY_DATE":null,"FILE":"5196654","GP_ID":"323492623","TLE_LINE0":"0 THOR ABLESTAR DEB","TLE_LINE1":"1   244U 61015BZ  26136.49337833  .00000047  00000-0  89393-4 0  9998","TLE_LINE2":"2   244  66.8409 307.3418 0062628 107.9411 252.8512 13.95731843294710"},{"CCSDS_OMM_VERS":"3.0","COMMENT":"GENERATED VIA SPACE-TRACK.ORG API","CREATION_DATE":"2026-05-16T19:46:19","ORIGINATOR":"18 SPCS","OBJECT_NAME":"THOR ABLESTAR DEB","OBJECT_ID":"1961-015CA","CENTER_NAME":"EARTH","REF_FRAME":"TEME","TIME_SYSTEM":"UTC","MEAN_ELEMENT_THEORY":"SGP4","EPOCH":"2026-05-16T13:31:18.399360","MEAN_MOTION":"14.18158977","ECCENTRICITY":"0.00552740","INCLINATION":"66.1033","RA_OF_ASC_NODE":"254.5701","ARG_OF_PERICENTER":"225.7366","MEAN_ANOMALY":"133.9179","EPHEMERIS_TYPE":"0","CLASSIFICATION_TYPE":"U","NORAD_CAT_ID":"245","ELEMENT_SET_NO":"999","REV_AT_EPOCH":"32339","BSTAR":"0.00035991000000","MEAN_MOTION_DOT":"0.00000663","MEAN_MOTION_DDOT":"0.0000000000000","SEMIMAJOR_AXIS":"7209.723","PERIOD":"101.540","APOAPSIS":"871.439","PERIAPSIS":"791.737","OBJECT_TYPE":"DEBRIS","RCS_SIZE":"MEDIUM","COUNTRY_CODE":"US","LAUNCH_DATE":"1961-06-29","SITE":"AFETR","DECAY_DATE":null,"FILE":"5196654","GP_ID":"323492124","TLE_LINE0":"0 THOR ABLESTAR DEB","TLE_LINE1":"1   245U 61015CA  26136.56340740  .00000663  00000-0  35991-3 0  9996","TLE_LINE2":"2   245  66.1033 254.5701 0055274 225.7366 133.9179 14.18158977323394"},{"CCSDS_OMM_VERS":"3.0","COMMENT":"GENERATED VIA SPACE-TRACK.ORG API","CREATION_DATE":"2026-05-16T17:43:08","ORIGINATOR":"18 SPCS","OBJECT_NAME":"THOR ABLESTAR DEB","OBJECT_ID":"1961-015CB","CENTER_NAME":"EARTH","REF_FRAME":"TEME","TIME_SYSTEM":"UTC","MEAN_ELEMENT_THEORY":"SGP4","EPOCH":"2026-05-16T15:24:32.158368","MEAN_MOTION":"13.86155591","ECCENTRICITY":"0.00630175","INCLINATION":"66.8693","RA_OF_ASC_NODE":"268.1323","ARG_OF_PERICENTER":"160.9988","MEAN_ANOMALY":"199.3461","EPHEMERIS_TYPE":"0","CLASSIFICATION_TYPE":"U","NORAD_CAT_ID":"246","ELEMENT_SET_NO":"999","REV_AT_EPOCH":"61949","BSTAR":"0.00002996452700","MEAN_MOTION_DOT":"-0.00000040","MEAN_MOTION_DDOT":"0.0000000000000","SEMIMAJOR_AXIS":"7320.271","PERIOD":"103.884","APOAPSIS":"988.267","PERIAPSIS":"896.006","OBJECT_TYPE":"DEBRIS","RCS_SIZE":"MEDIUM","COUNTRY_CODE":"US","LAUNCH_DATE":"1961-06-29","SITE":"AFETR","DECAY_DATE":null,"FILE":"5196581","GP_ID":"323457663","TLE_LINE0":"0 THOR ABLESTAR DEB","TLE_LINE1":"1 00246U 61015CB  26136.64203887 -.00000040  00000-0  29965-4 0  9991","TLE_LINE2":"2 00246  66.8693 268.1323 0063018 160.9988 199.3461 13.86155591619492"},{"CCSDS_OMM_VERS":"3.0","COMMENT":"GENERATED VIA SPACE-TRACK.ORG API","CREATION_DATE":"2026-05-16T17:43:08","ORIGINATOR":"18 SPCS","OBJECT_NAME":"THOR ABLESTAR DEB","OBJECT_ID":"1961-015CD","CENTER_NAME":"EARTH","REF_FRAME":"TEME","TIME_SYSTEM":"UTC","MEAN_ELEMENT_THEORY":"SGP4","EPOCH":"2026-05-16T15:18:24.670656","MEAN_MOTION":"13.77811018","ECCENTRICITY":"0.00583008","INCLINATION":"67.0783","RA_OF_ASC_NODE":"261.1837","ARG_OF_PERICENTER":"229.2444","MEAN_ANOMALY":"142.6818","EPHEMERIS_TYPE":"0","CLASSIFICATION_TYPE":"U","NORAD_CAT_ID":"252","ELEMENT_SET_NO":"999","REV_AT_EPOCH":"24698","BSTAR":"0.00011045231000","MEAN_MOTION_DOT":"0.00000040","MEAN_MOTION_DDOT":"0.0000000000000","SEMIMAJOR_AXIS":"7349.798","PERIOD":"104.514","APOAPSIS":"1014.513","PERIAPSIS":"928.813","OBJECT_TYPE":"DEBRIS","RCS_SIZE":"SMALL","COUNTRY_CODE":"US","LAUNCH_DATE":"1961-06-29","SITE":"AFETR","DECAY_DATE":null,"FILE":"5196581","GP_ID":"323457163","TLE_LINE0":"0 THOR ABLESTAR DEB","TLE_LINE1":"1 00252U 61015CD  26136.63778554  .00000040  00000-0  11045-3 0  9993","TLE_LINE2":"2 00252  67.0783 261.1837 0058301 229.2444 142.6818 13.77811018246980"},{"CCSDS_OMM_VERS":"3.0","COMMENT":"GENERATED VIA SPACE-TRACK.ORG API","CREATION_DATE":"2026-05-16T10:38:26","ORIGINATOR":"18 SPCS","OBJECT_NAME":"THOR ABLESTAR DEB","OBJECT_ID":"1961-015CF","CENTER_NAME":"EARTH","REF_FRAME":"TEME","TIME_SYSTEM":"UTC","MEAN_ELEMENT_THEORY":"SGP4","EPOCH":"2026-05-16T01:31:25.576608","MEAN_MOTION":"14.52690117","ECCENTRICITY":"0.00528362","INCLINATION":"66.7731","RA_OF_ASC_NODE":"5.8437","ARG_OF_PERICENTER":"103.2570","MEAN_ANOMALY":"257.4441","EPHEMERIS_TYPE":"0","CLASSIFICATION_TYPE":"U","NORAD_CAT_ID":"254","ELEMENT_SET_NO":"999","REV_AT_EPOCH":"36901","BSTAR":"0.00027714794000","MEAN_MOTION_DOT":"0.00001062","MEAN_MOTION_DDOT":"0.0000000000000","SEMIMAJOR_AXIS":"7095.013","PERIOD":"99.126","APOAPSIS":"754.365","PERIAPSIS":"679.390","OBJECT_TYPE":"DEBRIS","RCS_SIZE":"SMALL","COUNTRY_CODE":"US","LAUNCH_DATE":"1961-06-29","SITE":"AFETR","DECAY_DATE":null,"FILE":"5196540","GP_ID":"323423464","TLE_LINE0":"0 THOR ABLESTAR DEB","TLE_LINE1":"1 00254U 61015CF  26136.06349047  .00001062  00000-0  27715-3 0  9999","TLE_LINE2":"2 00254  66.7731   5.8437 0052836 103.2570 257.4441 14.52690117369014"}]